STARLINK-37892          
1 69485U 26131H   26177.16668980 -.00066500  00000+0 -34819-3 0  9998
2 69485  97.2834 197.9775 0001198  86.8341 242.6936 15.80872109  3456
STARLINK-37893          
1 69486U 26131J   26177.16668980 -.00062873  00000+0 -32918-3 0  9996
2 69486  97.2846 197.9795 0000809 112.5893 221.2238 15.80862516  3537
STARLINK-37842          
1 69487U 26131K   26177.16668980  .00017500  00000+0  91865-4 0  9999
2 69487  97.2842 197.9822 0001272  97.7884 240.2987 15.80828650  3458
STARLINK-37449          
1 69488U 26131L   26177.16668980 -.00045624  00000+0 -23801-3 0  9994
2 69488  97.2839 197.9839 0000830  78.0011 264.3287 15.80879242  3549
STARLINK-37831          
1 69489U 26131M   26177.16668980 -.00051878  00000+0 -27108-3 0  9997
2 69489  97.2842 197.9850 0000700 101.3433 245.2817 15.80867418  2112
STARLINK-37879          
1 69490U 26131N   26177.16668980  .00045499  00000+0  23689-3 0  9999
2 69490  97.2841 197.9882 0001002  74.8317 276.0676 15.80830250  3456
STARLINK-37856          
1 69491U 26131P   26177.16668980  .00001950  00000+0  10899-4 0  9994
2 69491  97.2839 197.9694 0001200  86.1315 221.2633 15.80855655  3517
STARLINK-37568          
1 69492U 26131Q   26177.16668980 -.00065068  00000+0 -34064-3 0  9996
2 69492  97.2841 197.9909 0001046  90.4982 268.9462 15.80871024  3545
STARLINK-37855          
1 69493U 26131R   26177.16668980 -.00032014  00000+0 -16673-3 0  9998
2 69493  97.2840 197.9761 0001158  97.5615 226.8949 15.80852437  3513
STARLINK-37854          
1 69494U 26131S   26177.16668980 -.00035158  00000+0 -18321-3 0  9993
2 69494  97.2839 197.9732 0000820 109.2094 208.5720 15.80856780  3516
STARLINK-37789          
1 69495U 26131T   26177.16668980  .00144382  00000+0  74378-3 0  9996
2 69495  97.2840 197.9957 0000942 127.1561 245.0925 15.80766766  3530
STARLINK-37839          
1 69496U 26131U   26177.16668980  .00022267  00000+0  11656-3 0  9994
2 69496  97.2843 197.9797 0001249  68.3589 263.3422 15.80840301  3514
STARLINK-37798          
1 69497U 26131V   26177.16668980 -.00062747  00000+0 -32837-3 0  9998
2 69497  97.2841 197.9978 0001213  99.9475 276.5928 15.80870921  3517
STARLINK-37853          
1 69498U 26131W   26177.16668980 -.00081351  00000+0 -42700-3 0  9991
2 69498  97.2832 198.0063 0000853  85.6078 312.3146 15.80864299  3517
STARLINK-37849          
1 69499U 26131X   26177.16668980 -.00051596  00000+0 -26979-3 0  9990
2 69499  97.2833 198.0047 0001087  96.7429 296.9070 15.80850478  3533
STARLINK-37835          
1 69500U 26131Y   26177.16668980  .00026741  00000+0  13971-3 0  9993
2 69500  97.2838 198.0019 0001314  80.1358 304.9523 15.80849116  2439
STARLINK-37843          
1 69501U 26131Z   26177.16668980 -.00001803  00000+0 -86632-5 0  9994
2 69501  97.2836 198.0036 0001239  94.9154 294.4518 15.80848957  3519
2026-132A               
1 69502U 26132A   26177.16644219  .00001161  00000+0  10046-3 0  9994
2 69502  97.6889 240.7236 0013152 236.5173 123.4793 14.99059596  2125
2026-132B               
1 69503U 26132B   26177.16560205  .00000883  00000+0  77361-4 0  9991
2 69503  97.6920 240.7303 0013053 238.6437 121.3509 14.99145273  2123
BRO-22                  
1 69504U 26132C   26177.15974060  .00000695  00000+0  60988-4 0  9997
2 69504  97.6854 240.7250 0014694 250.7149 109.2485 14.99766963  2121
2026-132D               
1 69505U 26132D   26176.40226340  .00003706  00000+0  26929-3 0  9998
2 69505  97.6876 240.0415 0016249 258.5580 101.3821 15.04379607  2012
VERTECS                 
1 69506U 26132E   26177.14917733  .00002634  00000+0  21119-3 0  9999
2 69506  97.6885 240.7470 0013285 272.7932  87.1771 15.00912950  2113
2026-132F               
1 69507U 26132F   26176.74061766  .00000884  00000+0  70490-4 0  9993
2 69507  97.6810 240.3655 0014050 272.7666  87.1951 15.02847044  2054
STARLINK-37536          
1 69508U 26133A   26177.16668980  .00107337  00000+0  54177-3 0  9997
2 69508  53.1594 277.1070 0001017  91.9896  26.3276 15.80826751  3419
STARLINK-37341          
1 69509U 26133B   26177.16668980  .00053716  00000+0  27421-3 0  9991
2 69509  53.1595 277.0780 0001608  86.8668  45.6999 15.80855456  3414
STARLINK-36536          
1 69510U 26133C   26177.16668980  .00077654  00000+0  39422-3 0  9994
2 69510  53.1598 277.0466 0001055  82.8575  64.8326 15.80829579  3356
STARLINK-37420          
1 69511U 26133D   26177.16668980  .00048611  00000+0  24880-3 0  9998
2 69511  53.1595 277.0049 0001123  99.4851  67.8008 15.80841531  3305
STARLINK-37511          
1 69512U 26133E   26177.16668980  .00108599  00000+0  54806-3 0  9992
2 69512  53.1594 277.0215 0000585  93.4226  66.3593 15.80825151  3304
STARLINK-37552          
1 69513U 26133F   26177.16668980 -.00088070  00000+0 -44682-3 0  9997
2 69513  53.1593 276.9751 0001274  71.1881 111.3236 15.80891419  3308
STARLINK-37607          
1 69514U 26133G   26177.16668980  .00027946  00000+0  14478-3 0  9991
2 69514  53.1593 276.9599 0000660  87.6094 101.6068 15.80856071  3305
