OBJECT_NAME,OBJECT_ID,EPOCH,MEAN_MOTION,ECCENTRICITY,INCLINATION,RA_OF_ASC_NODE,ARG_OF_PERICENTER,MEAN_ANOMALY,EPHEMERIS_TYPE,CLASSIFICATION_TYPE,NORAD_CAT_ID,ELEMENT_SET_NO,REV_AT_EPOCH,BSTAR,MEAN_MOTION_DOT,MEAN_MOTION_DDOT
STARLINK-37892,2026-131H,2026-06-26T04:00:01.998720,15.80872109,.0001198,97.2834,197.9775,86.8341,242.6936,0,U,69485,999,345,-.34819E-3,-.665E-3,0
STARLINK-37893,2026-131J,2026-06-26T04:00:01.998720,15.80862516,.0000809,97.2846,197.9795,112.5893,221.2238,0,U,69486,999,353,-.32918E-3,-.62873E-3,0
STARLINK-37842,2026-131K,2026-06-26T04:00:01.998720,15.80828650,.0001272,97.2842,197.9822,97.7884,240.2987,0,U,69487,999,345,.91865E-4,.175E-3,0
STARLINK-37449,2026-131L,2026-06-26T04:00:01.998720,15.80879242,.000083,97.2839,197.9839,78.0011,264.3287,0,U,69488,999,354,-.23801E-3,-.45624E-3,0
STARLINK-37831,2026-131M,2026-06-26T04:00:01.998720,15.80867418,.00007,97.2842,197.9850,101.3433,245.2817,0,U,69489,999,211,-.27108E-3,-.51878E-3,0
STARLINK-37879,2026-131N,2026-06-26T04:00:01.998720,15.80830250,.0001002,97.2841,197.9882,74.8317,276.0676,0,U,69490,999,345,.23689E-3,.45499E-3,0
STARLINK-37856,2026-131P,2026-06-26T04:00:01.998720,15.80855655,.00012,97.2839,197.9694,86.1315,221.2633,0,U,69491,999,351,.10899E-4,.195E-4,0
STARLINK-37568,2026-131Q,2026-06-26T04:00:01.998720,15.80871024,.0001046,97.2841,197.9909,90.4982,268.9462,0,U,69492,999,354,-.34064E-3,-.65068E-3,0
STARLINK-37855,2026-131R,2026-06-26T04:00:01.998720,15.80852437,.0001158,97.2840,197.9761,97.5615,226.8949,0,U,69493,999,351,-.16673E-3,-.32014E-3,0
STARLINK-37854,2026-131S,2026-06-26T04:00:01.998720,15.80856780,.000082,97.2839,197.9732,109.2094,208.5720,0,U,69494,999,351,-.18321E-3,-.35158E-3,0
STARLINK-37789,2026-131T,2026-06-26T04:00:01.998720,15.80766766,.0000942,97.2840,197.9957,127.1561,245.0925,0,U,69495,999,353,.74378E-3,.144382E-2,0
STARLINK-37839,2026-131U,2026-06-26T04:00:01.998720,15.80840301,.0001249,97.2843,197.9797,68.3589,263.3422,0,U,69496,999,351,.11656E-3,.22267E-3,0
STARLINK-37798,2026-131V,2026-06-26T04:00:01.998720,15.80870921,.0001213,97.2841,197.9978,99.9475,276.5928,0,U,69497,999,351,-.32837E-3,-.62747E-3,0
STARLINK-37853,2026-131W,2026-06-26T04:00:01.998720,15.80864299,.0000853,97.2832,198.0063,85.6078,312.3146,0,U,69498,999,351,-.427E-3,-.81351E-3,0
STARLINK-37849,2026-131X,2026-06-26T04:00:01.998720,15.80850478,.0001087,97.2833,198.0047,96.7429,296.9070,0,U,69499,999,353,-.26979E-3,-.51596E-3,0
STARLINK-37835,2026-131Y,2026-06-26T04:00:01.998720,15.80849116,.0001314,97.2838,198.0019,80.1358,304.9523,0,U,69500,999,243,.13971E-3,.26741E-3,0
STARLINK-37843,2026-131Z,2026-06-26T04:00:01.998720,15.80848957,.0001239,97.2836,198.0036,94.9154,294.4518,0,U,69501,999,351,-.86632E-5,-.1803E-4,0
2026-132A,2026-132A,2026-06-26T03:59:40.605216,14.99059596,.0013152,97.6889,240.7236,236.5173,123.4793,0,U,69502,999,212,.10046E-3,.1161E-4,0
2026-132B,2026-132B,2026-06-26T03:58:28.017120,14.99145273,.0013053,97.6920,240.7303,238.6437,121.3509,0,U,69503,999,212,.77361E-4,.883E-5,0
BRO-22,2026-132C,2026-06-26T03:50:01.587840,14.99766963,.0014694,97.6854,240.7250,250.7149,109.2485,0,U,69504,999,212,.60988E-4,.695E-5,0
2026-132D,2026-132D,2026-06-25T09:39:15.557760,15.04379607,.0016249,97.6876,240.0415,258.5580,101.3821,0,U,69505,999,201,.26929E-3,.3706E-4,0
VERTECS,2026-132E,2026-06-26T03:34:48.921312,15.00912950,.0013285,97.6885,240.7470,272.7932,87.1771,0,U,69506,999,211,.21119E-3,.2634E-4,0
2026-132F,2026-132F,2026-06-25T17:46:29.365824,15.02847044,.001405,97.6810,240.3655,272.7666,87.1951,0,U,69507,999,205,.7049E-4,.884E-5,0
STARLINK-37536,2026-133A,2026-06-26T04:00:01.998720,15.80826751,.0001017,53.1594,277.1070,91.9896,26.3276,0,U,69508,999,341,.54177E-3,.107337E-2,0
STARLINK-37341,2026-133B,2026-06-26T04:00:01.998720,15.80855456,.0001608,53.1595,277.0780,86.8668,45.6999,0,U,69509,999,341,.27421E-3,.53716E-3,0
STARLINK-36536,2026-133C,2026-06-26T04:00:01.998720,15.80829579,.0001055,53.1598,277.0466,82.8575,64.8326,0,U,69510,999,335,.39422E-3,.77654E-3,0
STARLINK-37420,2026-133D,2026-06-26T04:00:01.998720,15.80841531,.0001123,53.1595,277.0049,99.4851,67.8008,0,U,69511,999,330,.2488E-3,.48611E-3,0
STARLINK-37511,2026-133E,2026-06-26T04:00:01.998720,15.80825151,.0000585,53.1594,277.0215,93.4226,66.3593,0,U,69512,999,330,.54806E-3,.108599E-2,0
STARLINK-37552,2026-133F,2026-06-26T04:00:01.998720,15.80891419,.0001274,53.1593,276.9751,71.1881,111.3236,0,U,69513,999,330,-.44682E-3,-.8807E-3,0
STARLINK-37607,2026-133G,2026-06-26T04:00:01.998720,15.80856071,.000066,53.1593,276.9599,87.6094,101.6068,0,U,69514,999,330,.14478E-3,.27946E-3,0
